start=new Date('2022-07-18T00:00:00.000Z').valueOf();
sats=[{"MEAN_ELEMENT_THEORY":"SGP4","EPHEMERIS_TYPE":"0","REF_FRAME":"TEME","EPOCH":"2022-07-17T22:32:45.377376","PERIAPSIS":"546.021","CLASSIFICATION_TYPE":"U","RCS_SIZE":"LARGE","TIME_SYSTEM":"UTC","FILE":"3516387","TLE_LINE2":"2 46687  53.0568  75.5979 0001748  64.5152 295.6018 15.06393983 96839","REV_AT_EPOCH":"9683","SITE":"AFETR","INCLINATION":"53.0568","CENTER_NAME":"EARTH","PERIOD":"95.593","ARG_OF_PERICENTER":"64.5152","SEMIMAJOR_AXIS":"6925.367","DECAY_DATE":null,"MEAN_MOTION_DDOT":"0.0000000000000","MEAN_MOTION_DOT":"-0.00000664","OBJECT_NAME":"STARLINK-1784","MEAN_ANOMALY":"295.6018","GP_ID":"208337399","BSTAR":"-0.00002570300000","RA_OF_ASC_NODE":"75.5979","APOAPSIS":"548.443","NORAD_CAT_ID":"46687","LAUNCH_DATE":"2020-10-18","OBJECT_ID":"2020-073T","ECCENTRICITY":"0.00017480","COUNTRY_CODE":"US","OBJECT_TYPE":"PAYLOAD","MEAN_MOTION":"15.06393983","TLE_LINE1":"1 46687U 20073T   22198.93941409 -.00000664  00000-0 -25703-4 0  9993","ELEMENT_SET_NO":"999"},{"OBJECT_TYPE":"PAYLOAD","COUNTRY_CODE":"US","MEAN_MOTION":"15.06401567","TLE_LINE1":"1 46689U 20073V   22198.76478384  .00001699  00000-0  13291-3 0  9998","ELEMENT_SET_NO":"999","RA_OF_ASC_NODE":"111.3749","BSTAR":"0.00013291000000","GP_ID":"208338149","LAUNCH_DATE":"2020-10-18","OBJECT_ID":"2020-073V","ECCENTRICITY":"0.00017670","APOAPSIS":"548.432","NORAD_CAT_ID":"46689","DECAY_DATE":null,"MEAN_MOTION_DDOT":"0.0000000000000","MEAN_MOTION_DOT":"0.00001699","OBJECT_NAME":"STARLINK-1788","MEAN_ANOMALY":"287.0080","ARG_OF_PERICENTER":"73.1102","SEMIMAJOR_AXIS":"6925.344","REF_FRAME":"TEME","EPHEMERIS_TYPE":"0","EPOCH":"2022-07-17T18:21:17.323776","CLASSIFICATION_TYPE":"U","PERIAPSIS":"545.985","MEAN_ELEMENT_THEORY":"SGP4","TLE_LINE2":"2 46689  53.0538 111.3749 0001767  73.1102 287.0080 15.06401567 97567","REV_AT_EPOCH":"9756","INCLINATION":"53.0538","SITE":"AFETR","PERIOD":"95.592","CENTER_NAME":"EARTH","RCS_SIZE":"LARGE","TIME_SYSTEM":"UTC","FILE":"3516387"},{"SITE":"AFETR","INCLINATION":"53.0552","CENTER_NAME":"EARTH","PERIOD":"95.592","TLE_LINE2":"2 46690  53.0552  86.0751 0001340  97.2180 262.8961 15.06406033 96679","REV_AT_EPOCH":"9667","TIME_SYSTEM":"UTC","RCS_SIZE":"LARGE","FILE":"3516387","PERIAPSIS":"546.267","CLASSIFICATION_TYPE":"U","REF_FRAME":"TEME","EPHEMERIS_TYPE":"0","EPOCH":"2022-07-17T19:57:29.815776","MEAN_ELEMENT_THEORY":"SGP4","OBJECT_NAME":"STARLINK-1789","MEAN_ANOMALY":"262.8961","DECAY_DATE":null,"MEAN_MOTION_DDOT":"0.0000000000000","MEAN_MOTION_DOT":"0.00006958","ARG_OF_PERICENTER":"97.2180","SEMIMAJOR_AXIS":"6925.330","ECCENTRICITY":"0.00013400","LAUNCH_DATE":"2020-10-18","OBJECT_ID":"2020-073W","NORAD_CAT_ID":"46690","APOAPSIS":"548.123","RA_OF_ASC_NODE":"86.0751","BSTAR":"0.00048548000000","GP_ID":"208337638","ELEMENT_SET_NO":"999","MEAN_MOTION":"15.06406033","TLE_LINE1":"1 46690U 20073W   22198.83159509  .00006958  00000-0  48548-3 0  9999","OBJECT_TYPE":"PAYLOAD","COUNTRY_CODE":"US"},{"RA_OF_ASC_NODE":"96.0815","BSTAR":"0.00000506260000","GP_ID":"208337649","OBJECT_ID":"2020-073X","LAUNCH_DATE":"2020-10-18","ECCENTRICITY":"0.00015550","APOAPSIS":"548.301","NORAD_CAT_ID":"46691","OBJECT_TYPE":"PAYLOAD","COUNTRY_CODE":"US","TLE_LINE1":"1 46691U 20073X   22198.83068330 -.00000206  00000-0  50626-5 0  9994","MEAN_MOTION":"15.06396558","ELEMENT_SET_NO":"999","EPOCH":"2022-07-17T19:56:11.037120","EPHEMERIS_TYPE":"0","REF_FRAME":"TEME","PERIAPSIS":"546.147","CLASSIFICATION_TYPE":"U","MEAN_ELEMENT_THEORY":"SGP4","REV_AT_EPOCH":"9653","TLE_LINE2":"2 46691  53.0549  96.0815 0001555  69.9972 290.1184 15.06396558 96537","CENTER_NAME":"EARTH","PERIOD":"95.592","INCLINATION":"53.0549","SITE":"AFETR","FILE":"3516387","TIME_SYSTEM":"UTC","RCS_SIZE":"LARGE","MEAN_MOTION_DOT":"-0.00000206","MEAN_MOTION_DDOT":"0.0000000000000","DECAY_DATE":null,"MEAN_ANOMALY":"290.1184","OBJECT_NAME":"STARLINK-1790","SEMIMAJOR_AXIS":"6925.359","ARG_OF_PERICENTER":"69.9972"},{"OBJECT_TYPE":"PAYLOAD","COUNTRY_CODE":"US","MEAN_MOTION":"15.06400028","TLE_LINE1":"1 46692U 20073Y   22198.75004492  .00000556  00000-0  56248-4 0  9997","ELEMENT_SET_NO":"999","RA_OF_ASC_NODE":"111.4307","BSTAR":"0.00005624800000","GP_ID":"208337899","LAUNCH_DATE":"2020-10-18","OBJECT_ID":"2020-073Y","ECCENTRICITY":"0.00016160","APOAPSIS":"548.333","NORAD_CAT_ID":"46692","DECAY_DATE":null,"MEAN_MOTION_DOT":"0.00000556","MEAN_MOTION_DDOT":"0.0000000000000","OBJECT_NAME":"STARLINK-1791","MEAN_ANOMALY":"288.7741","ARG_OF_PERICENTER":"71.3424","SEMIMAJOR_AXIS":"6925.348","EPHEMERIS_TYPE":"0","REF_FRAME":"TEME","EPOCH":"2022-07-17T18:00:03.881088","CLASSIFICATION_TYPE":"U","PERIAPSIS":"546.094","MEAN_ELEMENT_THEORY":"SGP4","TLE_LINE2":"2 46692  53.0543 111.4307 0001616  71.3424 288.7741 15.06400028 96313","REV_AT_EPOCH":"9631","INCLINATION":"53.0543","SITE":"AFETR","PERIOD":"95.592","CENTER_NAME":"EARTH","TIME_SYSTEM":"UTC","RCS_SIZE":"LARGE","FILE":"3516387"},{"NORAD_CAT_ID":"46693","APOAPSIS":"548.162","ECCENTRICITY":"0.00013750","LAUNCH_DATE":"2020-10-18","OBJECT_ID":"2020-073Z","GP_ID":"208338649","BSTAR":"0.00008613200000","RA_OF_ASC_NODE":"96.0722","ELEMENT_SET_NO":"999","MEAN_MOTION":"15.06401102","TLE_LINE1":"1 46693U 20073Z   22198.83435869  .00001002  00000-0  86132-4 0  9995","COUNTRY_CODE":"US","OBJECT_TYPE":"PAYLOAD","RCS_SIZE":"LARGE","TIME_SYSTEM":"UTC","FILE":"3516387","SITE":"AFETR","INCLINATION":"53.0545","PERIOD":"95.592","CENTER_NAME":"EARTH","TLE_LINE2":"2 46693  53.0545  96.0722 0001375  80.7835 279.3309 15.06401102 96531","REV_AT_EPOCH":"9653","MEAN_ELEMENT_THEORY":"SGP4","PERIAPSIS":"546.258","CLASSIFICATION_TYPE":"U","EPHEMERIS_TYPE":"0","REF_FRAME":"TEME","EPOCH":"2022-07-17T20:01:28.590816","ARG_OF_PERICENTER":"80.7835","SEMIMAJOR_AXIS":"6925.345","OBJECT_NAME":"STARLINK-1792","MEAN_ANOMALY":"279.3309","DECAY_DATE":null,"MEAN_MOTION_DOT":"0.00001002","MEAN_MOTION_DDOT":"0.0000000000000"},{"SEMIMAJOR_AXIS":"6925.344","ARG_OF_PERICENTER":"106.4184","MEAN_MOTION_DOT":"-0.00000598","MEAN_MOTION_DDOT":"0.0000000000000","DECAY_DATE":null,"MEAN_ANOMALY":"253.6978","OBJECT_NAME":"STARLINK-1793","MEAN_ELEMENT_THEORY":"SGP4","EPOCH":"2022-07-17T22:11:30.894432","EPHEMERIS_TYPE":"0","REF_FRAME":"TEME","CLASSIFICATION_TYPE":"U","PERIAPSIS":"546.117","FILE":"3516387","RCS_SIZE":"LARGE","TIME_SYSTEM":"UTC","REV_AT_EPOCH":"9683","TLE_LINE2":"2 46694  53.0551  75.6693 0001577 106.4184 253.6978 15.06401441 96832","PERIOD":"95.592","CENTER_NAME":"EARTH","SITE":"AFETR","INCLINATION":"53.0551","COUNTRY_CODE":"US","OBJECT_TYPE":"PAYLOAD","TLE_LINE1":"1 46694U 20073AA  22198.92466313 -.00000598  00000-0 -21227-4 0  9999","MEAN_MOTION":"15.06401441","ELEMENT_SET_NO":"999","BSTAR":"-0.00002122700000","GP_ID":"208338891","RA_OF_ASC_NODE":"75.6693","APOAPSIS":"548.301","NORAD_CAT_ID":"46694","OBJECT_ID":"2020-073AA","LAUNCH_DATE":"2020-10-18","ECCENTRICITY":"0.00015770"},{"APOAPSIS":"548.459","NORAD_CAT_ID":"46696","OBJECT_ID":"2020-073AC","LAUNCH_DATE":"2020-10-18","ECCENTRICITY":"0.00019810","GP_ID":"208337150","BSTAR":"-0.00065084000000","RA_OF_ASC_NODE":"76.1766","TLE_LINE1":"1 46696U 20073AC  22198.81038747 -.00009974  00000-0 -65084-3 0  9990","MEAN_MOTION":"15.06441366","ELEMENT_SET_NO":"999","COUNTRY_CODE":"US","OBJECT_TYPE":"PAYLOAD","FILE":"3516387","RCS_SIZE":"LARGE","TIME_SYSTEM":"UTC","REV_AT_EPOCH":"9681","TLE_LINE2":"2 46696  53.0573  76.1766 0001981  71.1659 288.9544 15.06441366 96817","CENTER_NAME":"EARTH","PERIOD":"95.590","INCLINATION":"53.0573","SITE":"AFETR","MEAN_ELEMENT_THEORY":"SGP4","EPOCH":"2022-07-17T19:26:57.477408","EPHEMERIS_TYPE":"0","REF_FRAME":"TEME","CLASSIFICATION_TYPE":"U","PERIAPSIS":"545.715","SEMIMAJOR_AXIS":"6925.222","ARG_OF_PERICENTER":"71.1659","MEAN_MOTION_DDOT":"0.0000000000000","MEAN_MOTION_DOT":"-0.00009974","DECAY_DATE":null,"MEAN_ANOMALY":"288.9544","OBJECT_NAME":"STARLINK-1795"},{"APOAPSIS":"548.283","NORAD_CAT_ID":"46698","OBJECT_ID":"2020-073AE","LAUNCH_DATE":"2020-10-18","ECCENTRICITY":"0.00015640","GP_ID":"208337400","BSTAR":"0.00007673400000","RA_OF_ASC_NODE":"95.9022","TLE_LINE1":"1 46698U 20073AE  22198.86658684  .00000862  00000-0  76734-4 0  9995","MEAN_MOTION":"15.06404561","ELEMENT_SET_NO":"999","COUNTRY_CODE":"US","OBJECT_TYPE":"PAYLOAD","FILE":"3516387","RCS_SIZE":"LARGE","TIME_SYSTEM":"UTC","REV_AT_EPOCH":"9654","TLE_LINE2":"2 46698  53.0548  95.9022 0001564  84.2766 275.8402 15.06404561 96540","CENTER_NAME":"EARTH","PERIOD":"95.592","INCLINATION":"53.0548","SITE":"AFETR","MEAN_ELEMENT_THEORY":"SGP4","EPOCH":"2022-07-17T20:47:53.102976","EPHEMERIS_TYPE":"0","REF_FRAME":"TEME","CLASSIFICATION_TYPE":"U","PERIAPSIS":"546.116","SEMIMAJOR_AXIS":"6925.335","ARG_OF_PERICENTER":"84.2766","MEAN_MOTION_DOT":"0.00000862","MEAN_MOTION_DDOT":"0.0000000000000","DECAY_DATE":null,"MEAN_ANOMALY":"275.8402","OBJECT_NAME":"STARLINK-1797"},{"EPOCH":"2022-07-17T17:43:28.716384","EPHEMERIS_TYPE":"0","REF_FRAME":"TEME","PERIAPSIS":"546.231","CLASSIFICATION_TYPE":"U","MEAN_ELEMENT_THEORY":"SGP4","REV_AT_EPOCH":"9652","TLE_LINE2":"2 46699  53.0534  96.4971 0001396  66.2331 293.8805 15.06405099 96528","CENTER_NAME":"EARTH","PERIOD":"95.592","SITE":"AFETR","INCLINATION":"53.0534","FILE":"3516387","TIME_SYSTEM":"UTC","RCS_SIZE":"LARGE","MEAN_MOTION_DOT":"0.00000517","MEAN_MOTION_DDOT":"0.0000000000000","DECAY_DATE":null,"MEAN_ANOMALY":"293.8805","OBJECT_NAME":"STARLINK-1799","SEMIMAJOR_AXIS":"6925.333","ARG_OF_PERICENTER":"66.2331","RA_OF_ASC_NODE":"96.4971","BSTAR":"0.00005360300000","GP_ID":"208338150","OBJECT_ID":"2020-073AF","LAUNCH_DATE":"2020-10-18","ECCENTRICITY":"0.00013960","APOAPSIS":"548.165","NORAD_CAT_ID":"46699","OBJECT_TYPE":"PAYLOAD","COUNTRY_CODE":"US","TLE_LINE1":"1 46699U 20073AF  22198.73852681  .00000517  00000-0  53603-4 0  9992","MEAN_MOTION":"15.06405099","ELEMENT_SET_NO":"999"}];
